{
  "type": "FeatureCollection",
  "features": [
    {
      "type": "Feature",
      "properties": {
        "norad_id": 34761,
        "name": "COSMOS 2251 DEB",
        "group": "cosmos-2251-debris",
        "lat": 58.373999336523426,
        "lon": 163.52042541601878,
        "alt_km": 750.4436428967219,
        "timestamp": "2025-12-08T03:50:07.391219+00:00",
        "meta_object_name": "COSMOS 2251 DEB",
        "meta_object_id": "1993-036AAF",
        "meta_epoch": "2025-12-07T02:14:57.354432",
        "meta_mean_motion": 14.38020048,
        "meta_eccentricity": 0.00361726,
        "meta_inclination": 74.0292,
        "meta_ra_of_asc_node": 13.1962,
        "meta_arg_of_pericenter": 49.0658,
        "meta_mean_anomaly": 311.3617,
        "meta_ephemeris_type": 0,
        "meta_classification_type": "U",
        "meta_norad_cat_id": 34761,
        "meta_element_set_no": 999,
        "meta_rev_at_epoch": 87568,
        "meta_bstar": 0.00095461799,
        "meta_mean_motion_dot": 2.885e-05,
        "meta_mean_motion_ddot": 0,
        "tle_line1": "1 34761U 93036AAF 25341.09371938  .00002885  00000+0  95462-3 0  9998",
        "tle_line2": "2 34761  74.0292  13.1962 0036172  49.0658 311.3617 14.38020048875686"
      },
      "geometry": {
        "type": "Point",
        "coordinates": [
          163.52042541601878,
          58.373999336523426
        ]
      }
    },
    {
      "type": "Feature",
      "properties": {
        "norad_id": 34784,
        "name": "COSMOS 2251 DEB",
        "group": "cosmos-2251-debris",
        "lat": -25.236678952307553,
        "lon": -34.64513788667026,
        "alt_km": 730.5834705060406,
        "timestamp": "2025-12-08T03:50:07.391229+00:00",
        "meta_object_name": "COSMOS 2251 DEB",
        "meta_object_id": "1993-036AAM",
        "meta_epoch": "2025-12-06T05:56:01.298400",
        "meta_mean_motion": 14.60734634,
        "meta_eccentricity": 0.00496438,
        "meta_inclination": 74.007,
        "meta_ra_of_asc_node": 336.783,
        "meta_arg_of_pericenter": 148.0473,
        "meta_mean_anomaly": 212.3721,
        "meta_ephemeris_type": 0,
        "meta_classification_type": "U",
        "meta_norad_cat_id": 34784,
        "meta_element_set_no": 999,
        "meta_rev_at_epoch": 88440,
        "meta_bstar": 0.00087620671,
        "meta_mean_motion_dot": 4.32e-05,
        "meta_mean_motion_ddot": 0,
        "tle_line1": "1 34784U 93036AAM 25340.24723725  .00004320  00000+0  87621-3 0  9998",
        "tle_line2": "2 34784  74.0070 336.7830 0049643 148.0473 212.3721 14.60734634884409"
      },
      "geometry": {
        "type": "Point",
        "coordinates": [
          -34.64513788667026,
          -25.236678952307553
        ]
      }
    },
    {
      "type": "Feature",
      "properties": {
        "norad_id": 34790,
        "name": "COSMOS 2251 DEB",
        "group": "cosmos-2251-debris",
        "lat": -23.239942693169496,
        "lon": -115.10000910486328,
        "alt_km": 747.3733078708719,
        "timestamp": "2025-12-08T03:50:07.391239+00:00",
        "meta_object_name": "COSMOS 2251 DEB",
        "meta_object_id": "1993-036AAT",
        "meta_epoch": "2025-12-07T05:03:57.147840",
        "meta_mean_motion": 14.24601462,
        "meta_eccentricity": 0.01007166,
        "meta_inclination": 74.0546,
        "meta_ra_of_asc_node": 253.6594,
        "meta_arg_of_pericenter": 316.4356,
        "meta_mean_anomaly": 195.3333,
        "meta_ephemeris_type": 0,
        "meta_classification_type": "U",
        "meta_norad_cat_id": 34790,
        "meta_element_set_no": 999,
        "meta_rev_at_epoch": 86494,
        "meta_bstar": 0.0012774193,
        "meta_mean_motion_dot": 3.103e-05,
        "meta_mean_motion_ddot": 0,
        "tle_line1": "1 34790U 93036AAT 25341.21107810  .00003103  00000+0  12774-2 0  9998",
        "tle_line2": "2 34790  74.0546 253.6594 0100716 316.4356 195.3333 14.24601462864946"
      },
      "geometry": {
        "type": "Point",
        "coordinates": [
          -115.10000910486328,
          -23.239942693169496
        ]
      }
    },
    {
      "type": "Feature",
      "properties": {
        "norad_id": 34792,
        "name": "COSMOS 2251 DEB",
        "group": "cosmos-2251-debris",
        "lat": 49.236049484959615,
        "lon": -21.017044801637056,
        "alt_km": 708.8176015727222,
        "timestamp": "2025-12-08T03:50:07.391250+00:00",
        "meta_object_name": "COSMOS 2251 DEB",
        "meta_object_id": "1993-036AAV",
        "meta_epoch": "2025-12-06T23:54:11.888352",
        "meta_mean_motion": 14.55884457,
        "meta_eccentricity": 0.00125491,
        "meta_inclination": 74.017,
        "meta_ra_of_asc_node": 180.6094,
        "meta_arg_of_pericenter": 274.363,
        "meta_mean_anomaly": 236.2476,
        "meta_ephemeris_type": 0,
        "meta_classification_type": "U",
        "meta_norad_cat_id": 34792,
        "meta_element_set_no": 999,
        "meta_rev_at_epoch": 87566,
        "meta_bstar": 0.0014149111,
        "meta_mean_motion_dot": 6.194e-05,
        "meta_mean_motion_ddot": 0,
        "tle_line1": "1 34792U 93036AAV 25340.99597093  .00006194  00000+0  14149-2 0  9991",
        "tle_line2": "2 34792  74.0170 180.6094 0012549 274.3630 236.2476 14.55884457875663"
      },
      "geometry": {
        "type": "Point",
        "coordinates": [
          -21.017044801637056,
          49.236049484959615
        ]
      }
    },
    {
      "type": "Feature",
      "properties": {
        "norad_id": 34793,
        "name": "COSMOS 2251 DEB",
        "group": "cosmos-2251-debris",
        "lat": -11.387751827683077,
        "lon": 82.14078128635869,
        "alt_km": 793.2934372237678,
        "timestamp": "2025-12-08T03:50:07.391260+00:00",
        "meta_object_name": "COSMOS 2251 DEB",
        "meta_object_id": "1993-036AAW",
        "meta_epoch": "2025-12-07T05:57:45.426816",
        "meta_mean_motion": 14.38630433,
        "meta_eccentricity": 0.00500708,
        "meta_inclination": 74.0031,
        "meta_ra_of_asc_node": 260.5114,
        "meta_arg_of_pericenter": 56.084,
        "meta_mean_anomaly": 97.1354,
        "meta_ephemeris_type": 0,
        "meta_classification_type": "U",
        "meta_norad_cat_id": 34793,
        "meta_element_set_no": 999,
        "meta_rev_at_epoch": 87251,
        "meta_bstar": 0.00050020434,
        "meta_mean_motion_dot": 1.529e-05,
        "meta_mean_motion_ddot": 0,
        "tle_line1": "1 34793U 93036AAW 25341.24844244  .00001529  00000+0  50020-3 0  9990",
        "tle_line2": "2 34793  74.0031 260.5114 0050070  56.0840  97.1354 14.38630433872514"
      },
      "geometry": {
        "type": "Point",
        "coordinates": [
          82.14078128635869,
          -11.387751827683077
        ]
      }
    },
    {
      "type": "Feature",
      "properties": {
        "norad_id": 34796,
        "name": "COSMOS 2251 DEB",
        "group": "cosmos-2251-debris",
        "lat": 55.73136478552701,
        "lon": 20.078536895543394,
        "alt_km": 787.4954474006599,
        "timestamp": "2025-12-08T03:50:07.391270+00:00",
        "meta_object_name": "COSMOS 2251 DEB",
        "meta_object_id": "1993-036AAZ",
        "meta_epoch": "2025-12-07T03:06:57.014784",
        "meta_mean_motion": 14.48646532,
        "meta_eccentricity": 0.01001509,
        "meta_inclination": 74.03,
        "meta_ra_of_asc_node": 226.8617,
        "meta_arg_of_pericenter": 330.1384,
        "meta_mean_anomaly": 180.6876,
        "meta_ephemeris_type": 0,
        "meta_classification_type": "U",
        "meta_norad_cat_id": 34796,
        "meta_element_set_no": 999,
        "meta_rev_at_epoch": 87946,
        "meta_bstar": 0.0011608758,
        "meta_mean_motion_dot": 4.63e-05,
        "meta_mean_motion_ddot": 0,
        "tle_line1": "1 34796U 93036AAZ 25341.12982656  .00004630  00000+0  11609-2 0  9995",
        "tle_line2": "2 34796  74.0300 226.8617 0100150 330.1384 180.6876 14.48646532879469"
      },
      "geometry": {
        "type": "Point",
        "coordinates": [
          20.078536895543394,
          55.73136478552701
        ]
      }
    },
    {
      "type": "Feature",
      "properties": {
        "norad_id": 34797,
        "name": "COSMOS 2251 DEB",
        "group": "cosmos-2251-debris",
        "lat": -17.983735368625826,
        "lon": 103.16406479876649,
        "alt_km": 778.6457616120961,
        "timestamp": "2025-12-08T03:50:07.391279+00:00",
        "meta_object_name": "COSMOS 2251 DEB",
        "meta_object_id": "1993-036ABA",
        "meta_epoch": "2025-12-06T15:18:32.741280",
        "meta_mean_motion": 14.42649949,
        "meta_eccentricity": 0.00724054,
        "meta_inclination": 73.9773,
        "meta_ra_of_asc_node": 111.3499,
        "meta_arg_of_pericenter": 225.9765,
        "meta_mean_anomaly": 133.5412,
        "meta_ephemeris_type": 0,
        "meta_classification_type": "U",
        "meta_norad_cat_id": 34797,
        "meta_element_set_no": 999,
        "meta_rev_at_epoch": 87327,
        "meta_bstar": 0.0039721456,
        "meta_mean_motion_dot": 0.00013628,
        "meta_mean_motion_ddot": 0,
        "tle_line1": "1 34797U 93036ABA 25340.63787895  .00013628  00000+0  39721-2 0  9991",
        "tle_line2": "2 34797  73.9773 111.3499 0072405 225.9765 133.5412 14.42649949873278"
      },
      "geometry": {
        "type": "Point",
        "coordinates": [
          103.16406479876649,
          -17.983735368625826
        ]
      }
    }
  ]
}